NORAD_CAT_ID,OBJECT_NAME,OBJECT_TYPE,EPOCH,MEAN_MOTION,ECCENTRICITY,INCLINATION,RA_OF_ASC_NODE,ARG_OF_PERICENTER,MEAN_ANOMALY,BSTAR,MEAN_MOTION_DOT,MEAN_MOTION_DDOT,TLE_LINE0,TLE_LINE1,TLE_LINE2,SEMIMAJOR_AXIS,PERIOD,APOGEE,PERIGEE,DECAYED
52579.0,STARLINK-3893,PAYLOAD,2024-02-25 04:15:53,15.08839637,0.0001341,53.2151,231.8737,89.1127,271.0019,8.4361e-05,1.055e-05,0.0,0 STARLINK-3893,1 52579U 22051AV  24056.17769890  .00001055  00000-0  84361-4 0  9999,2 52579  53.2151 231.8737 0001341  89.1127 271.0019 15.08839637 99205,6917.881,95.438,540.674,538.819,0.0
52579.0,STARLINK-3893,PAYLOAD,2024-02-25 12:12:49,15.08836708,0.0001444,53.2157,230.3878,92.9299,267.1858,2.9777e-05,1.86e-06,0.0,0 STARLINK-3893,1 52579U 22051AV  24056.50890332  .00000186  00000-0  29777-4 0  9996,2 52579  53.2157 230.3878 0001444  92.9299 267.1858 15.08836708 99187,6917.89,95.438,540.754,538.757,0.0
52579.0,STARLINK-3893,PAYLOAD,2024-02-25 18:34:21,15.08839685,0.0001437,53.2169,229.1994,96.3413,263.7743,9.3748e-05,1.204e-05,0.0,0 STARLINK-3893,1 52579U 22051AV  24056.77385939  .00001204  00000-0  93748-4 0  9998,2 52579  53.2169 229.1994 0001437  96.3413 263.7743 15.08839685 99220,6917.881,95.438,540.74,538.752,0.0
52579.0,STARLINK-3893,PAYLOAD,2024-02-26 04:06:40,15.0883399,0.0001255,53.2149,227.4136,84.1475,275.9661,-2.3451e-06,-3.25e-06,0.0,0 STARLINK-3893,1 52579U 22051AV  24057.17130663 -.00000325  00000-0 -23451-5 0  9995,2 52579  53.2149 227.4136 0001255  84.1475 275.9661 15.08833990 99359,6917.899,95.438,540.632,538.896,0.0
52579.0,STARLINK-3893,PAYLOAD,2024-02-26 12:03:37,15.08832286,0.0001515,53.2189,225.9296,95.2881,264.8284,-7.564e-05,-1.491e-05,0.0,0 STARLINK-3893,1 52579U 22051AV  24057.50251277 -.00001491  00000-0 -75640-4 0  9998,2 52579  53.2189 225.9296 0001515  95.2881 264.8284 15.08832286 99339,6917.904,95.438,540.817,538.721,0.0
52579.0,STARLINK-3893,PAYLOAD,2024-02-26 18:25:09,15.088328,0.0001439,53.2179,224.7412,100.159,259.9565,-5.7953e-05,-1.21e-05,0.0,0 STARLINK-3893,1 52579U 22051AV  24057.76747246 -.00001210  00000-0 -57953-4 0  9998,2 52579  53.2179 224.7412 0001439 100.1590 259.9565 15.08832800 99376,6917.902,95.438,540.763,538.772,0.0
52579.0,STARLINK-3893,PAYLOAD,2024-02-27 19:51:18,15.08845228,0.0001415,53.2171,219.9807,85.8874,274.228,7.9564e-05,9.79e-06,0.0,0 STARLINK-3893,1 52579U 22051AV  24058.82730208  .00000979  00000-0  79564-4 0  9997,2 52579  53.2171 219.9807 0001415  85.8874 274.2280 15.08845228 99608,6917.864,95.437,540.708,538.751,0.0
52579.0,STARLINK-3893,PAYLOAD,2024-02-28 10:09:47,15.08832615,0.0001394,53.216,217.3041,94.6192,265.4959,9.9692e-05,1.299e-05,0.0,0 STARLINK-3893,1 52579U 22051AV  24059.42347061  .00001299  00000-0  99692-4 0  9995,2 52579  53.2160 217.3041 0001394  94.6192 265.4959 15.08832615 99695,6917.903,95.438,540.732,538.804,0.0
52579.0,STARLINK-3893,PAYLOAD,2024-02-28 18:06:43,15.08836744,0.0001278,53.2159,215.8167,93.2109,266.9029,7.4669e-05,9.01e-06,0.0,0 STARLINK-3893,1 52579U 22051AV  24059.75466900  .00000901  00000-0  74669-4 0  9991,2 52579  53.2159 215.8167 0001278  93.2109 266.9029 15.08836744 99678,6917.89,95.438,540.639,538.871,0.0
52579.0,STARLINK-3893,PAYLOAD,2024-02-29 14:46:43,15.08847037,0.0001195,53.2155,211.9503,97.3914,262.7214,-4.6498e-06,-3.62e-06,0.0,0 STARLINK-3893,1 52579U 22051AV  24060.61578517 -.00000362  00000-0 -46498-5 0  9999,2 52579  53.2155 211.9503 0001195  97.3914 262.7214 15.08847037 99804,6917.859,95.437,540.551,538.897,0.0
52579.0,STARLINK-3893,PAYLOAD,2024-02-29 16:22:07,15.08846103,0.0001218,53.2157,211.6531,98.079,262.034,-7.1558e-06,-4.02e-06,0.0,0 STARLINK-3893,1 52579U 22051AV  24060.68202559 -.00000402  00000-0 -71558-5 0  9996,2 52579  53.2157 211.6531 0001218  98.0790 262.0340 15.08846103 99884,6917.862,95.437,540.569,538.884,0.0
52579.0,STARLINK-3893,PAYLOAD,2024-03-01 14:37:31,15.08840212,0.0001282,53.2161,207.4908,89.3325,270.7814,4.7339e-05,4.66e-06,0.0,0 STARLINK-3893,1 52579U 22051AV  24061.60938681  .00000466  00000-0  47339-4 0  9998,2 52579  53.2161 207.4908 0001282  89.3325 270.7814 15.08840212 99953,6917.88,95.438,540.632,538.858,0.0
52579.0,STARLINK-3893,PAYLOAD,2024-03-01 16:12:53,15.08844876,0.0001254,53.2164,207.1933,89.1232,270.9904,3.4653e-05,2.64e-06,0.0,0 STARLINK-3893,1 52579U 22051AV  24061.67562444  .00000264  00000-0  34653-4 0  9996,2 52579  53.2164 207.1933 0001254  89.1232 270.9904 15.08844876 99968,6917.865,95.437,540.598,538.863,0.0
52579.0,STARLINK-3893,PAYLOAD,2024-03-02 14:28:18,15.08823903,0.0001304,53.2176,203.0315,90.8628,269.2514,0.00021403,3.119e-05,0.0,0 STARLINK-3893,1 52579U 22051AV  24062.60299288  .00003119  00000-0  21403-3 0  9993,2 52579  53.2176 203.0315 0001304  90.8628 269.2514 15.08823903100109,6917.93,95.439,540.697,538.892,0.0
52579.0,STARLINK-3893,PAYLOAD,2024-03-02 16:03:41,15.08840162,0.000143,53.2178,202.7345,92.0137,268.1019,1.0263e-05,-1.25e-06,0.0,0 STARLINK-3893,1 52579U 22051AV  24062.66922797 -.00000125  00000-0  10263-4 0  9995,2 52579  53.2178 202.7345 0001430  92.0137 268.1019 15.08840162100181,6917.88,95.438,540.734,538.756,0.0
52579.0,STARLINK-3893,PAYLOAD,2024-03-03 14:19:05,15.08839059,0.0001463,53.2181,198.5707,92.606,267.51,2.312e-06,-2.51e-06,0.0,0 STARLINK-3893,1 52579U 22051AV  24063.59658978 -.00000251  00000-0  23120-5 0  9992,2 52579  53.2181 198.5707 0001463  92.6060 267.5100 15.08839059100251,6917.883,95.438,540.76,538.736,0.0
52579.0,STARLINK-3893,PAYLOAD,2024-03-03 19:05:14,15.08844073,0.0001474,53.2177,197.6756,95.0644,265.0516,2.6719e-05,1.37e-06,0.0,0 STARLINK-3893,1 52579U 22051AV  24063.79530516  .00000137  00000-0  26719-4 0  9999,2 52579  53.2177 197.6756 0001474  95.0644 265.0516 15.08844073100286,6917.868,95.437,540.753,538.713,0.0
52579.0,STARLINK-3893,PAYLOAD,2024-03-04 14:09:51,15.08846812,0.0001484,53.2178,194.1059,85.5174,274.5988,0.00011494,1.542e-05,0.0,0 STARLINK-3893,1 52579U 22051AV  24064.59017849  .00001542  00000-0  11494-3 0  9991,2 52579  53.2178 194.1059 0001484  85.5174 274.5988 15.08846812100403,6917.86,95.437,540.751,538.698,0.0
52579.0,STARLINK-3893,PAYLOAD,2024-03-04 15:45:13,15.08862282,0.0001356,53.2175,193.8083,72.0504,288.0636,0.0002442,3.603e-05,0.0,0 STARLINK-3893,1 52579U 22051AV  24064.65640539  .00003603  00000-0  24420-3 0  9999,2 52579  53.2175 193.8083 0001356  72.0504 288.0636 15.08862282100486,6917.812,95.436,540.615,538.739,0.0
52579.0,STARLINK-3893,PAYLOAD,2024-03-05 14:00:40,15.08828313,0.0001574,53.2176,189.6472,116.0977,244.0177,-7.7394e-05,-1.519e-05,0.0,0 STARLINK-3893,1 52579U 22051AV  24065.58379924 -.00001519  00000-0 -77394-4 0  9994,2 52579  53.2176 189.6472 0001574 116.0977 244.0177 15.08828313100554,6917.916,95.438,540.87,538.692,0.0
52579.0,STARLINK-3893,PAYLOAD,2024-03-05 17:11:26,15.08829925,0.0001375,53.2174,189.0522,109.8162,250.2978,-6.1129e-05,-1.26e-05,0.0,0 STARLINK-3893,1 52579U 22051AV  24065.71627895 -.00001260  00000-0 -61129-4 0  9994,2 52579  53.2174 189.0522 0001375 109.8162 250.2978 15.08829925100645,6917.911,95.438,540.727,538.825,0.0
52579.0,STARLINK-3893,PAYLOAD,2024-03-06 13:51:27,15.0884411,0.0001344,53.2174,185.187,88.1375,271.9771,-0.00014476,-2.591e-05,0.0,0 STARLINK-3893,1 52579U 22051AV  24066.57739759 -.00002591  00000-0 -14476-3 0  9992,2 52579  53.2174 185.1870 0001344  88.1375 271.9771 15.08844110100700,6917.868,95.437,540.663,538.803,0.0
52579.0,STARLINK-3893,PAYLOAD,2024-03-06 15:26:50,15.08842741,0.0001609,53.218,184.8919,68.5877,291.5286,-0.00011867,-2.176e-05,0.0,0 STARLINK-3893,1 52579U 22051AV  24066.64363924 -.00002176  00000-0 -11867-3 0  9997,2 52579  53.2180 184.8919 0001609  68.5877 291.5286 15.08842741100785,6917.872,95.437,540.85,538.624,0.0
52579.0,STARLINK-3893,PAYLOAD,2024-03-07 13:42:14,15.08832685,0.0001469,53.2164,180.7282,98.2386,261.8773,0.0001864,2.679e-05,0.0,0 STARLINK-3893,1 52579U 22051AV  24067.57099992  .00002679  00000-0  18640-3 0  9993,2 52579  53.2164 180.7282 0001469  98.2386 261.8773 15.08832685100859,6917.903,95.438,540.784,538.752,0.0
52579.0,STARLINK-3893,PAYLOAD,2024-03-08 13:33:00,15.08854351,0.0001161,53.2177,176.2698,75.4838,284.6283,0.00014458,2.015e-05,0.0,0 STARLINK-3893,1 52579U 22051AV  24068.56458813  .00002015  00000-0  14458-3 0  9991,2 52579  53.2177 176.2698 0001161  75.4838 284.6283 15.08854351101070,6917.837,95.437,540.505,538.898,0.0
52579.0,STARLINK-3893,PAYLOAD,2024-03-09 00:40:42,15.08846101,9.14e-05,53.2178,174.1839,102.5518,257.5577,0.00010769,1.427e-05,0.0,0 STARLINK-3893,1 52579U 22051AV  24069.02826968  .00001427  00000-0  10769-3 0  9990,2 52579  53.2178 174.1839 0000914 102.5518 257.5577 15.08846101101144,6917.862,95.437,540.359,539.094,0.0
52579.0,STARLINK-3893,PAYLOAD,2024-03-09 13:23:48,15.08844798,0.0001383,53.2172,171.8059,78.9127,281.2021,-4.0807e-05,-9.37e-06,0.0,0 STARLINK-3893,1 52579U 22051AV  24069.55819748 -.00000937  00000-0 -40807-4 0  9990,2 52579  53.2172 171.8059 0001383  78.9127 281.2021 15.08844798101226,6917.866,95.437,540.687,538.774,0.0
52579.0,STARLINK-3893,PAYLOAD,2024-03-10 13:14:35,15.088429,0.0001311,53.2157,167.3447,81.285,278.8291,-8.3776e-05,-1.621e-05,0.0,0 STARLINK-3893,1 52579U 22051AV  24070.55179964 -.00001621  00000-0 -83776-4 0  9994,2 52579  53.2157 167.3447 0001311  81.2850 278.8291 15.08842900101304,6917.872,95.437,540.643,538.83,0.0
52579.0,STARLINK-3893,PAYLOAD,2024-03-10 22:46:54,15.08840448,0.0001196,53.2165,165.5597,76.1715,283.941,3.5325e-07,-2.82e-06,0.0,0 STARLINK-3893,1 52579U 22051AV  24070.94923818 -.00000282  00000-0  35325-6 0  9992,2 52579  53.2165 165.5597 0001196  76.1715 283.9410 15.08840448101432,6917.879,95.438,540.571,538.917,0.0
52579.0,STARLINK-3893,PAYLOAD,2024-03-11 13:05:22,15.08840276,0.000134,53.2166,162.8873,70.5665,289.5472,0.00019612,2.835e-05,0.0,0 STARLINK-3893,1 52579U 22051AV  24071.54539563  .00002835  00000-0  19612-3 0  9992,2 52579  53.2166 162.8873 0001340  70.5665 289.5472 15.08840276101454,6917.88,95.438,540.672,538.818,0.0
